LANDSAT 9               
1 49260U 21088A   24260.15822440  .00001904  00000+0  43258-3 0  9998
2 49260  98.2242 328.6272 0001282  86.9130 273.2215 14.57115954157939
